0 FENGYUN 1C DEB
1 30546U 99025AKL 13282.72559152  .00005501  00000-0  11397-2 0  5816
2 30546 098.9443 081.0684 0162831 138.1278 281.6044 14.52636211354610
0 FENGYUN 1C DEB
1 30546U 99025AKL 13283.97836219  .00005931  00000-0  12274-2 0  5829
2 30546 098.9440 082.4038 0162806 134.3629 352.9669 14.52647477354795
0 FENGYUN 1C DEB
1 30546U 99025AKL 13285.41102797  .00004809  00000-0  99739-3 0  5833
2 30546 098.9436 083.9310 0162787 130.0510 285.1633 14.52661076355003
0 FENGYUN 1C DEB
1 30546U 99025AKL 13286.72023271  .00004881  00000-0  10120-2 0  5844
2 30546 098.9434 085.3266 0162722 126.1107 291.7753 14.52672386355196
0 FENGYUN 1C DEB
1 30546U 99025AKL 13287.97265118  .00007805  00000-0  16102-2 0  5856
2 30546 098.9434 086.6620 0162650 122.3374 001.4714 14.52685963355376
0 FENGYUN 1C DEB
1 30546U 99025AKL 13289.40150020  .00005821  00000-0  12037-2 0  5861
2 30546 098.9434 088.1852 0162674 118.0522 273.8967 14.52701429355587
0 FENGYUN 1C DEB
1 30546U 99025AKL 13290.71543179  .00005969  00000-0  12338-2 0  5876
2 30546 098.9438 089.5863 0162610 114.0886 305.4254 14.52713347355771
0 FENGYUN 1C DEB
1 30546U 99025AKL 13292.24291931  .00004753  00000-0  98484-3 0  5880
2 30546 098.9443 091.2149 0162574 109.4836 013.8716 14.52726509355997
0 FENGYUN 1C DEB
1 30546U 99025AKL 13293.40171054  .00004787  00000-0  99159-3 0  5890
2 30546 098.9447 092.4505 0162558 105.9861 314.1605 14.52737064356163
0 FENGYUN 1C DEB
1 30546U 99025AKL 13294.43469155  .00005504  00000-0  11381-2 0  5906
2 30546 098.9450 093.5519 0162539 102.8775 316.5106 14.52744280356310
0 FENGYUN 1C DEB
1 30546U 99025AKL 13295.67412156  .00005156  00000-0  10667-2 0  5912
2 30546 098.9453 094.8737 0162583 099.1552 318.5909 14.52754954356490
